{
    "type": "FeatureCollection",
    "features": [
        {
            "type": "Feature",
            "geometry": {
                "type": "Point",
                "coordinates": [
                    -80.093153,
                    46.860396,
                    2
                ]
            },
            "properties": {
                "name": "South Southwest Arm Bridge",
                "status": "Operational",
                "hardware": "RAK4631 1W Solar Node",
                "contact": "Bond Keevil",
                "marker-color": "yellow"
            }
        },
        {
            "type": "Feature",
            "geometry": {
                "type": "Point",
                "coordinates": [
                    -80.334982,
                    47.386921,
                    2
                ]
            },
            "properties": {
                "name": "Maple Mountain",
                "status": "Operational",
                "hardware": "Elecrow M6 Solar", 
                "marker-color": "yellow",
                "contact": "Darcy Fortin"
            }
        },
        {
            "type": "Feature",
            "geometry": {
                "type": "Point",
                "coordinates": [
                    -80.084966,
                    46.855989,
                    2
                ]
            },
            "properties": {
                "name": "VE3TLV Base",
                "status": "Operational",
                "marker-color": "orange",
                "contact": "Bond Keevil"
            }
        },
        {
            "type": "Feature",
            "geometry": {
                "type": "Point",
                "coordinates": [
                    -80.032097,
                    46.925763,
                    2
                ]
            },
            "properties": {
                "name": "High Rock Site",
                "status": "Operational",
                "hardware": "RAK 4631 1W Solar Node",
                "marker-color": "yellow",
                "contact": "Bond Keevil"
            }
        },
        {
            "type": "Feature",
            "geometry": {
                "type": "Point",
                "coordinates": [
                    -79.952194,
                    46.973525,
                    2
                ]
            },
            "properties": {
                "name": "Shiningwood Bay Site",
                "status": "Operational",
                "hardware": "RAK 4631 1W Solar Node",
                "marker-color": "yellow",
                "contact": "Darcy Fortin"
            }
        },
        {
            "type": "Feature",
            "geometry": {
                "type": "Point",
                "coordinates": [
                    -80.088841,
                    46.911246,
                    2
                ]
            },
            "properties": {
                "name": "Chimo/Island Bay Site",
                "status": "Operational",
                "hardware": "RAK 4631 1W Solar Node",
                "marker-color": "yellow",
                "contact": "Bond Keevil"
            }
        },
        {
            "type": "Feature",
            "geometry": {
                "type": "Point",
                "coordinates": [
                    -80.138625,
                    46.825899,
                    2
                ]
            },
            "properties": {
                "name": "SW Arm Papoose Site",
                "status": "Proposed",
                "hardware": "RAK 4631 1W Solar Node",
                "marker-color": "red",
                "contact": "Bond Keevil"
            }
        },
        {
            "type": "Feature",
            "geometry": {
                "type": "Point",
                "coordinates": [
                    -79.976855,
                    46.833089,
                    2
                ]
            },
            "properties": {
                "name": "Cross Lake Central Site",
                "status": "Operational",
                "hardware": "RAK 4631 1W Solar Node",
                "marker-color": "yellow",
                "contact": "Bond Keevil"
            }
        },
        {
            "type": "Feature",
            "geometry": {
                "type": "Point",
                "coordinates": [
                    -80.070946,
                    46.98015,
                    2
                ]
            },
            "properties": {
                "name": "Bear Island Fire Tower",
                "status": "Operational",
                "hardware": "Heltec T114 with 15dbm Booster",
                "marker-color": "yellow",
                "contact": "TFN/TAA"
            }
        },
        {
            "type": "Feature",
            "geometry": {
                "type": "Point",
                "coordinates": [
                    -79.77,
                    47.058280,
                    2
                ]
            },
            "properties": {
                "name": "Temagami Fire Tower Site",
                "status": "Operational",
                "hardware": "RAK 4631 1W Solar Node",
                "marker-color": "yellow",
                "contact": "Darcy Fortin"
            }
        },
        {
            "type": "Feature",
            "geometry": {
                "type": "Point",
                "coordinates": [
                    -79.789384,
                    47.111582, 
                    2
                ]
            },
            "properties": {
                "name": "Temagami North Site",
                "status": "Operational",
                "hardware": "Heltec V4 12V Node",
                "marker-color": "orange",
                "contact": "Darcy Fortin"
            }
        },
        {
            "type": "Feature",
            "geometry": {
                "type": "Point",
                "coordinates": [
                    -80.042329,
                    47.158304,
                    2
                ]
            },
            "properties": {
                "name": "Red Squirrel Lake Site",
                "status": "Proposed",
                "hardware": "RAK 4631 1W Solar Node",
                "marker-color": "red",
                "contact": "Jason Fehr"
            }
        },
        {
            "type": "Feature",
            "geometry": {
                "type": "Point",
                "coordinates": [
                    -79.825456,
                     47.058116,
                    2
                ]
            },
            "properties": {
                "name": "Bell Island Site",
                "status": "Active",
                "hardware": "RAK 4631 1W Solar Node",
                "marker-color": "yellow",
                "contact": "Bond Keevil"
            }
        },
        {
            "type": "Feature",
            "geometry": {
                "type": "Point",
                "coordinates": [
                    -79.83395,
                     47.09131,
                    2
                ]
            },
            "properties": {
                "name": "SN#2",
                "status": "Active",
                "hardware": "RAK 4631 1W Solar Node",
                "marker-color": "yellow",
                "contact": "Bond Keevil"
            }
        }

    ]
}
