<?xml version="1.0" encoding="UTF-8"?>
<kml xmlns="http://www.opengis.net/kml/2.2" xmlns:gx="http://www.google.com/kml/ext/2.2" xmlns:kml="http://www.opengis.net/kml/2.2" xmlns:atom="http://www.w3.org/2005/Atom">
<Document>
	<name>Mesh Router Sites.kml</name>
	<StyleMap id="m_ylw-pushpin">
		<Pair>
			<key>normal</key>
			<styleUrl>#s_ylw-pushpin0</styleUrl>
		</Pair>
		<Pair>
			<key>highlight</key>
			<styleUrl>#s_ylw-pushpin_hl</styleUrl>
		</Pair>
	</StyleMap>
	<StyleMap id="m_ylw-pushpin0">
		<Pair>
			<key>normal</key>
			<styleUrl>#s_ylw-pushpin3</styleUrl>
		</Pair>
		<Pair>
			<key>highlight</key>
			<styleUrl>#s_ylw-pushpin_hl0</styleUrl>
		</Pair>
	</StyleMap>
	<StyleMap id="m_ylw-pushpin20">
		<Pair>
			<key>normal</key>
			<styleUrl>#s_ylw-pushpin</styleUrl>
		</Pair>
		<Pair>
			<key>highlight</key>
			<styleUrl>#s_ylw-pushpin_hl1</styleUrl>
		</Pair>
	</StyleMap>
	<StyleMap id="msn_ylw-pushpin">
		<Pair>
			<key>normal</key>
			<styleUrl>#sn_ylw-pushpin1</styleUrl>
		</Pair>
		<Pair>
			<key>highlight</key>
			<styleUrl>#sh_ylw-pushpin2</styleUrl>
		</Pair>
	</StyleMap>
	<StyleMap id="msn_ylw-pushpin0">
		<Pair>
			<key>normal</key>
			<styleUrl>#sn_ylw-pushpin2</styleUrl>
		</Pair>
		<Pair>
			<key>highlight</key>
			<styleUrl>#sh_ylw-pushpin0</styleUrl>
		</Pair>
	</StyleMap>
	<StyleMap id="msn_ylw-pushpin1">
		<Pair>
			<key>normal</key>
			<styleUrl>#sn_ylw-pushpin</styleUrl>
		</Pair>
		<Pair>
			<key>highlight</key>
			<styleUrl>#sh_ylw-pushpin</styleUrl>
		</Pair>
	</StyleMap>
	<StyleMap id="msn_ylw-pushpin2">
		<Pair>
			<key>normal</key>
			<styleUrl>#sn_ylw-pushpin0</styleUrl>
		</Pair>
		<Pair>
			<key>highlight</key>
			<styleUrl>#sh_ylw-pushpin3</styleUrl>
		</Pair>
	</StyleMap>
	<StyleMap id="msn_ylw-pushpin3">
		<Pair>
			<key>normal</key>
			<styleUrl>#sn_ylw-pushpin3</styleUrl>
		</Pair>
		<Pair>
			<key>highlight</key>
			<styleUrl>#sh_ylw-pushpin1</styleUrl>
		</Pair>
	</StyleMap>
	<Style id="s_ylw-pushpin">
		<IconStyle>
			<scale>1.1</scale>
			<Icon>
				<href>http://maps.google.com/mapfiles/kml/pushpin/ylw-pushpin.png</href>
			</Icon>
			<hotSpot x="20" y="2" xunits="pixels" yunits="pixels"/>
		</IconStyle>
	</Style>
	<Style id="s_ylw-pushpin0">
		<IconStyle>
			<scale>1.1</scale>
			<Icon>
				<href>http://maps.google.com/mapfiles/kml/pushpin/ylw-pushpin.png</href>
			</Icon>
			<hotSpot x="20" y="2" xunits="pixels" yunits="pixels"/>
		</IconStyle>
	</Style>
	<Style id="s_ylw-pushpin3">
		<IconStyle>
			<scale>1.1</scale>
			<Icon>
				<href>http://maps.google.com/mapfiles/kml/pushpin/ylw-pushpin.png</href>
			</Icon>
			<hotSpot x="20" y="2" xunits="pixels" yunits="pixels"/>
		</IconStyle>
	</Style>
	<Style id="s_ylw-pushpin_hl">
		<IconStyle>
			<scale>1.3</scale>
			<Icon>
				<href>http://maps.google.com/mapfiles/kml/pushpin/ylw-pushpin.png</href>
			</Icon>
			<hotSpot x="20" y="2" xunits="pixels" yunits="pixels"/>
		</IconStyle>
	</Style>
	<Style id="s_ylw-pushpin_hl0">
		<IconStyle>
			<scale>1.3</scale>
			<Icon>
				<href>http://maps.google.com/mapfiles/kml/pushpin/ylw-pushpin.png</href>
			</Icon>
			<hotSpot x="20" y="2" xunits="pixels" yunits="pixels"/>
		</IconStyle>
	</Style>
	<Style id="s_ylw-pushpin_hl1">
		<IconStyle>
			<scale>1.3</scale>
			<Icon>
				<href>http://maps.google.com/mapfiles/kml/pushpin/ylw-pushpin.png</href>
			</Icon>
			<hotSpot x="20" y="2" xunits="pixels" yunits="pixels"/>
		</IconStyle>
	</Style>
	<Style id="sh_ylw-pushpin">
		<IconStyle>
			<color>ff0000aa</color>
			<scale>1.3</scale>
			<Icon>
				<href>http://maps.google.com/mapfiles/kml/pushpin/ylw-pushpin.png</href>
			</Icon>
			<hotSpot x="20" y="2" xunits="pixels" yunits="pixels"/>
		</IconStyle>
		<BalloonStyle>
		</BalloonStyle>
	</Style>
	<Style id="sh_ylw-pushpin0">
		<IconStyle>
			<color>ff00aaff</color>
			<scale>1.3</scale>
			<Icon>
				<href>http://maps.google.com/mapfiles/kml/pushpin/ylw-pushpin.png</href>
			</Icon>
			<hotSpot x="20" y="2" xunits="pixels" yunits="pixels"/>
		</IconStyle>
		<BalloonStyle>
		</BalloonStyle>
	</Style>
	<Style id="sh_ylw-pushpin1">
		<IconStyle>
			<color>ff0000aa</color>
			<scale>1.3</scale>
			<Icon>
				<href>http://maps.google.com/mapfiles/kml/pushpin/ylw-pushpin.png</href>
			</Icon>
			<hotSpot x="20" y="2" xunits="pixels" yunits="pixels"/>
		</IconStyle>
		<BalloonStyle>
		</BalloonStyle>
	</Style>
	<Style id="sh_ylw-pushpin2">
		<IconStyle>
			<color>ff0000aa</color>
			<scale>1.3</scale>
			<Icon>
				<href>http://maps.google.com/mapfiles/kml/pushpin/ylw-pushpin.png</href>
			</Icon>
			<hotSpot x="20" y="2" xunits="pixels" yunits="pixels"/>
		</IconStyle>
		<BalloonStyle>
		</BalloonStyle>
	</Style>
	<Style id="sh_ylw-pushpin3">
		<IconStyle>
			<color>ff00ffff</color>
			<scale>1.3</scale>
			<Icon>
				<href>http://maps.google.com/mapfiles/kml/pushpin/ylw-pushpin.png</href>
			</Icon>
			<hotSpot x="20" y="2" xunits="pixels" yunits="pixels"/>
		</IconStyle>
		<BalloonStyle>
		</BalloonStyle>
	</Style>
	<Style id="sn_ylw-pushpin">
		<IconStyle>
			<color>ff0000aa</color>
			<scale>1.1</scale>
			<Icon>
				<href>http://maps.google.com/mapfiles/kml/pushpin/ylw-pushpin.png</href>
			</Icon>
			<hotSpot x="20" y="2" xunits="pixels" yunits="pixels"/>
		</IconStyle>
		<BalloonStyle>
		</BalloonStyle>
	</Style>
	<Style id="sn_ylw-pushpin0">
		<IconStyle>
			<color>ff00ffff</color>
			<scale>1.1</scale>
			<Icon>
				<href>http://maps.google.com/mapfiles/kml/pushpin/ylw-pushpin.png</href>
			</Icon>
			<hotSpot x="20" y="2" xunits="pixels" yunits="pixels"/>
		</IconStyle>
		<BalloonStyle>
		</BalloonStyle>
	</Style>
	<Style id="sn_ylw-pushpin1">
		<IconStyle>
			<color>ff0000aa</color>
			<scale>1.1</scale>
			<Icon>
				<href>http://maps.google.com/mapfiles/kml/pushpin/ylw-pushpin.png</href>
			</Icon>
			<hotSpot x="20" y="2" xunits="pixels" yunits="pixels"/>
		</IconStyle>
		<BalloonStyle>
		</BalloonStyle>
	</Style>
	<Style id="sn_ylw-pushpin2">
		<IconStyle>
			<color>ff00aaff</color>
			<scale>1.1</scale>
			<Icon>
				<href>http://maps.google.com/mapfiles/kml/pushpin/ylw-pushpin.png</href>
			</Icon>
			<hotSpot x="20" y="2" xunits="pixels" yunits="pixels"/>
		</IconStyle>
		<BalloonStyle>
		</BalloonStyle>
	</Style>
	<Style id="sn_ylw-pushpin3">
		<IconStyle>
			<color>ff0000aa</color>
			<scale>1.1</scale>
			<Icon>
				<href>http://maps.google.com/mapfiles/kml/pushpin/ylw-pushpin.png</href>
			</Icon>
			<hotSpot x="20" y="2" xunits="pixels" yunits="pixels"/>
		</IconStyle>
		<BalloonStyle>
		</BalloonStyle>
	</Style>
	<Folder>
		<name>Mesh Router Sites</name>
		<open>1</open>
		<Placemark>
			<name>South Southwest Arm Bridge</name>
			<LookAt>
				<longitude>-80.09901548852311</longitude>
				<latitude>46.85266369351375</latitude>
				<altitude>0</altitude>
				<heading>10.25245814178272</heading>
				<tilt>1.783372580159754</tilt>
				<range>15908.6141220596</range>
				<gx:altitudeMode>relativeToSeaFloor</gx:altitudeMode>
			</LookAt>
			<StyleMap id="m_ylw-pushpin1">
				<Pair>
					<key>normal</key>
					<styleUrl>runtime://clone192#s_ylw-pushpin</styleUrl>
				</Pair>
				<Pair>
					<key>highlight</key>
					<styleUrl>runtime://clone192#s_ylw-pushpin_hl</styleUrl>
				</Pair>
			</StyleMap>
			<Point>
				<gx:drawOrder>1</gx:drawOrder>
				<coordinates>-80.093153,46.86039600000001,0</coordinates>
			</Point>
		</Placemark>
		<Placemark>
			<name>Maple Mountain</name>
			<LookAt>
				<longitude>-80.33490500543695</longitude>
				<latitude>47.38748378399234</latitude>
				<altitude>0</altitude>
				<heading>5.581027578610204</heading>
				<tilt>56.04315993602413</tilt>
				<range>255.1238401196247</range>
				<gx:altitudeMode>relativeToSeaFloor</gx:altitudeMode>
			</LookAt>
			<styleUrl>#m_ylw-pushpin20</styleUrl>
			<Point>
				<altitudeMode>relativeToGround</altitudeMode>
				<gx:drawOrder>1</gx:drawOrder>
				<coordinates>-80.33498156823744,47.38692090818112,2.009920375613783</coordinates>
			</Point>
		</Placemark>
		<Placemark>
			<name>Cross Bay Site</name>
			<LookAt>
				<longitude>-80.00629360906133</longitude>
				<latitude>46.92793158627536</latitude>
				<altitude>0</altitude>
				<heading>9.816115103846681</heading>
				<tilt>9.449210764274952</tilt>
				<range>5400.642192772908</range>
				<gx:altitudeMode>relativeToSeaFloor</gx:altitudeMode>
			</LookAt>
			<styleUrl>#msn_ylw-pushpin1</styleUrl>
			<Point>
				<gx:drawOrder>1</gx:drawOrder>
				<coordinates>-80.00115860911417,46.9179251977107,0</coordinates>
			</Point>
		</Placemark>
		<Placemark>
			<name>VE3TLV Base</name>
			<LookAt>
				<longitude>-80.08489306494103</longitude>
				<latitude>46.85551670967391</latitude>
				<altitude>0</altitude>
				<heading>9.756241893884075</heading>
				<tilt>26.88698224515616</tilt>
				<range>478.5136303113397</range>
				<gx:altitudeMode>relativeToSeaFloor</gx:altitudeMode>
			</LookAt>
			<styleUrl>#msn_ylw-pushpin0</styleUrl>
			<Point>
				<gx:drawOrder>1</gx:drawOrder>
				<coordinates>-80.08496599999999,46.855989,0</coordinates>
			</Point>
		</Placemark>
		<Placemark>
			<name>High Rock Site</name>
			<LookAt>
				<longitude>-80.02970273835297</longitude>
				<latitude>46.92337533500297</latitude>
				<altitude>0</altitude>
				<heading>9.79653539057694</heading>
				<tilt>21.67337838315417</tilt>
				<range>1215.888359984803</range>
				<gx:altitudeMode>relativeToSeaFloor</gx:altitudeMode>
			</LookAt>
			<styleUrl>#m_ylw-pushpin</styleUrl>
			<Point>
				<gx:drawOrder>1</gx:drawOrder>
				<coordinates>-80.03209727152623,46.92576300343795,0</coordinates>
			</Point>
		</Placemark>
		<Placemark>
			<name>Cross Lake Aileen Site</name>
			<LookAt>
				<longitude>-79.99719928887124</longitude>
				<latitude>46.87622855298171</latitude>
				<altitude>0</altitude>
				<heading>9.820282867092365</heading>
				<tilt>11.37378650700579</tilt>
				<range>4007.664539645952</range>
				<gx:altitudeMode>relativeToSeaFloor</gx:altitudeMode>
			</LookAt>
			<styleUrl>#msn_ylw-pushpin3</styleUrl>
			<Point>
				<gx:drawOrder>1</gx:drawOrder>
				<coordinates>-80.00309943456713,46.88184759656123,0</coordinates>
			</Point>
		</Placemark>
		<Placemark>
			<name>Shiningwood Bay Site</name>
			<LookAt>
				<longitude>-79.95455285256466</longitude>
				<latitude>46.97290541048432</latitude>
				<altitude>0</altitude>
				<heading>9.708834877296569</heading>
				<tilt>26.76168776318525</tilt>
				<range>605.7969345866029</range>
				<gx:altitudeMode>relativeToSeaFloor</gx:altitudeMode>
			</LookAt>
			<styleUrl>#m_ylw-pushpin0</styleUrl>
			<Point>
				<gx:drawOrder>1</gx:drawOrder>
				<coordinates>-79.95219444444444,46.973525,0</coordinates>
			</Point>
		</Placemark>
		<Placemark>
			<name>Chimo/Island Bay Site</name>
			<LookAt>
				<longitude>-80.08136086863482</longitude>
				<latitude>46.91082119974021</latitude>
				<altitude>0</altitude>
				<heading>9.616189151213634</heading>
				<tilt>12.39397032768837</tilt>
				<range>1832.924773162768</range>
				<gx:altitudeMode>relativeToSeaFloor</gx:altitudeMode>
			</LookAt>
			<styleUrl>#msn_ylw-pushpin3</styleUrl>
			<Point>
				<altitudeMode>relativeToGround</altitudeMode>
				<gx:drawOrder>1</gx:drawOrder>
				<coordinates>-80.08884097078179,46.91124632909171,2.010052359642211</coordinates>
			</Point>
		</Placemark>
		<Placemark>
			<name>SW Arm Papoose Site</name>
			<LookAt>
				<longitude>-80.13209273239339</longitude>
				<latitude>46.83126127586824</latitude>
				<altitude>0</altitude>
				<heading>13.66109836471365</heading>
				<tilt>13.72011509989519</tilt>
				<range>2681.106521479062</range>
				<gx:altitudeMode>relativeToSeaFloor</gx:altitudeMode>
			</LookAt>
			<styleUrl>#msn_ylw-pushpin3</styleUrl>
			<Point>
				<gx:drawOrder>1</gx:drawOrder>
				<coordinates>-80.13862450917799,46.8258993476461,0</coordinates>
			</Point>
		</Placemark>
		<Placemark>
			<name>Cross Lake Central Site</name>
			<LookAt>
				<longitude>-79.97866573034558</longitude>
				<latitude>46.8329137767997</latitude>
				<altitude>0</altitude>
				<heading>10.34027886288439</heading>
				<tilt>16.28608317268547</tilt>
				<range>1843.662610249284</range>
				<gx:altitudeMode>relativeToSeaFloor</gx:altitudeMode>
			</LookAt>
			<styleUrl>#m_ylw-pushpin</styleUrl>
			<Point>
				<gx:drawOrder>1</gx:drawOrder>
				<coordinates>-79.97685521931258,46.83308942926143,0</coordinates>
			</Point>
		</Placemark>
		<Placemark>
			<name>Bear Island Fire Tower</name>
			<LookAt>
				<longitude>-80.07092587123671</longitude>
				<latitude>46.98061470900938</latitude>
				<altitude>0</altitude>
				<heading>9.623842554812715</heading>
				<tilt>31.53591601897118</tilt>
				<range>383.1124245594763</range>
				<gx:altitudeMode>relativeToSeaFloor</gx:altitudeMode>
			</LookAt>
			<styleUrl>#msn_ylw-pushpin2</styleUrl>
			<Point>
				<gx:drawOrder>1</gx:drawOrder>
				<coordinates>-80.07094629091721,46.98015006084368,0</coordinates>
			</Point>
		</Placemark>
		<Placemark>
			<name>Gull Lake</name>
			<LookAt>
				<longitude>-80.15216240199705</longitude>
				<latitude>46.94365093683506</latitude>
				<altitude>0</altitude>
				<heading>9.709594378070587</heading>
				<tilt>15.18130701547159</tilt>
				<range>2818.296595431316</range>
				<gx:altitudeMode>relativeToSeaFloor</gx:altitudeMode>
			</LookAt>
			<styleUrl>#msn_ylw-pushpin1</styleUrl>
			<Point>
				<gx:drawOrder>1</gx:drawOrder>
				<coordinates>-80.1485261389347,46.94189869061103,0</coordinates>
			</Point>
		</Placemark>
		<Placemark>
			<name>Access Point Pow Wow Grounds</name>
			<LookAt>
				<longitude>-80.00134103818165</longitude>
				<latitude>46.9540395391986</latitude>
				<altitude>0</altitude>
				<heading>9.811574830604556</heading>
				<tilt>16.92198407784911</tilt>
				<range>5517.051108474533</range>
				<gx:altitudeMode>relativeToSeaFloor</gx:altitudeMode>
			</LookAt>
			<styleUrl>#msn_ylw-pushpin1</styleUrl>
			<Point>
				<gx:drawOrder>1</gx:drawOrder>
				<coordinates>-79.987621,46.95907499999999,0</coordinates>
			</Point>
		</Placemark>
		<Placemark>
			<name>Temagami Fire Tower Site</name>
			<LookAt>
				<longitude>-79.78453825650503</longitude>
				<latitude>47.05984949258564</latitude>
				<altitude>0</altitude>
				<heading>9.9701405884558</heading>
				<tilt>16.92197057172026</tilt>
				<range>5511.918280647509</range>
				<gx:altitudeMode>relativeToSeaFloor</gx:altitudeMode>
			</LookAt>
			<styleUrl>#msn_ylw-pushpin1</styleUrl>
			<Point>
				<gx:drawOrder>1</gx:drawOrder>
				<coordinates>-79.77861341384903,47.05810557388165,0</coordinates>
			</Point>
		</Placemark>
		<Placemark>
			<name>Temagami North Site</name>
			<LookAt>
				<longitude>-79.78945638879446</longitude>
				<latitude>47.10984371027629</latitude>
				<altitude>0</altitude>
				<heading>0.1957993876844949</heading>
				<tilt>34.4836366377901</tilt>
				<range>1089.197275603373</range>
				<gx:altitudeMode>relativeToSeaFloor</gx:altitudeMode>
			</LookAt>
			<styleUrl>#msn_ylw-pushpin0</styleUrl>
			<Point>
				<gx:drawOrder>1</gx:drawOrder>
				<coordinates>-79.78936652661794,47.11150077543876,0</coordinates>
			</Point>
		</Placemark>
		<Placemark>
			<name>Red Squirrel Lake Site</name>
			<LookAt>
				<longitude>-80.04978085068323</longitude>
				<latitude>47.15428467883434</latitude>
				<altitude>0</altitude>
				<heading>0.005069351118235512</heading>
				<tilt>8.572075569944847</tilt>
				<range>3826.244320689857</range>
				<gx:altitudeMode>relativeToSeaFloor</gx:altitudeMode>
			</LookAt>
			<styleUrl>#msn_ylw-pushpin</styleUrl>
			<Point>
				<gx:drawOrder>1</gx:drawOrder>
				<coordinates>-80.04232859188731,47.15830440176012,0</coordinates>
			</Point>
		</Placemark>
		<atom:link rel="app" href="https://www.google.com/earth/about/versions/#earth-pro" title="Google Earth Pro 7.3.7.1155"></atom:link>
	</Folder>
</Document>
</kml>
